[{"OBJECT_NAME":"ONEWEB-0564","OBJECT_ID":"2023-029F","EPOCH":"2026-06-17T01:25:52.347360","MEAN_MOTION":13.20770664,"ECCENTRICITY":0.0002137,"INCLINATION":87.9186,"RA_OF_ASC_NODE":274.4791,"ARG_OF_PERICENTER":90.4465,"MEAN_ANOMALY":269.6913,"EPHEMERIS_TYPE":0,"CLASSIFICATION_TYPE":"U","NORAD_CAT_ID":55801,"ELEMENT_SET_NO":999,"REV_AT_EPOCH":16113,"BSTAR":3.3594000000000004e-05,"MEAN_MOTION_DOT":2.7e-07,"MEAN_MOTION_DDOT":0.0},{"OBJECT_NAME":"ONEWEB-0638","OBJECT_ID":"2023-029G","EPOCH":"2026-06-16T20:38:46.393152","MEAN_MOTION":13.14504567,"ECCENTRICITY":0.000175,"INCLINATION":87.8955,"RA_OF_ASC_NODE":289.8169,"ARG_OF_PERICENTER":83.1332,"MEAN_ANOMALY":276.9997,"EPHEMERIS_TYPE":0,"CLASSIFICATION_TYPE":"U","NORAD_CAT_ID":55802,"ELEMENT_SET_NO":999,"REV_AT_EPOCH":15935,"BSTAR":0.0005487300000000001,"MEAN_MOTION_DOT":2.16e-06,"MEAN_MOTION_DDOT":0.0},{"OBJECT_NAME":"ONEWEB-0639","OBJECT_ID":"2023-029H","EPOCH":"2026-06-17T02:35:08.349792","MEAN_MOTION":13.19725176,"ECCENTRICITY":0.0001298,"INCLINATION":87.917,"RA_OF_ASC_NODE":304.9917,"ARG_OF_PERICENTER":128.5224,"MEAN_ANOMALY":231.6025,"EPHEMERIS_TYPE":0,"CLASSIFICATION_TYPE":"U","NORAD_CAT_ID":55803,"ELEMENT_SET_NO":999,"REV_AT_EPOCH":15889,"BSTAR":8.0512e-05,"MEAN_MOTION_DOT":4.5e-07,"MEAN_MOTION_DDOT":0.0},{"OBJECT_NAME":"ONEWEB-0640","OBJECT_ID":"2023-029J","EPOCH":"2026-06-17T02:21:17.184384","MEAN_MOTION":13.14502434,"ECCENTRICITY":0.0001361,"INCLINATION":87.8956,"RA_OF_ASC_NODE":289.7604,"ARG_OF_PERICENTER":84.177,"MEAN_ANOMALY":275.9515,"EPHEMERIS_TYPE":0,"CLASSIFICATION_TYPE":"U","NORAD_CAT_ID":55804,"ELEMENT_SET_NO":999,"REV_AT_EPOCH":15940,"BSTAR":0.0005708800000000001,"MEAN_MOTION_DOT":2.24e-06,"MEAN_MOTION_DDOT":0.0},{"OBJECT_NAME":"ONEWEB-0641","OBJECT_ID":"2023-029K","EPOCH":"2026-06-17T02:28:18.331680","MEAN_MOTION":13.19724904,"ECCENTRICITY":0.0001792,"INCLINATION":87.9177,"RA_OF_ASC_NODE":304.9817,"ARG_OF_PERICENTER":103.6384,"MEAN_ANOMALY":256.4948,"EPHEMERIS_TYPE":0,"CLASSIFICATION_TYPE":"U","NORAD_CAT_ID":55805,"ELEMENT_SET_NO":999,"REV_AT_EPOCH":15890,"BSTAR":1.0878e-05,"MEAN_MOTION_DOT":1.7e-07,"MEAN_MOTION_DDOT":0.0},{"OBJECT_NAME":"ONEWEB-0642","OBJECT_ID":"2023-029L","EPOCH":"2026-06-17T02:21:29.647584","MEAN_MOTION":13.19723415,"ECCENTRICITY":0.0001594,"INCLINATION":87.917,"RA_OF_ASC_NODE":304.9946,"ARG_OF_PERICENTER":125.6288,"MEAN_ANOMALY":234.4993,"EPHEMERIS_TYPE":0,"CLASSIFICATION_TYPE":"U","NORAD_CAT_ID":55806,"ELEMENT_SET_NO":999,"REV_AT_EPOCH":15889,"BSTAR":-0.00025413000000000004,"MEAN_MOTION_DOT":-8.9e-07,"MEAN_MOTION_DDOT":0.0},{"OBJECT_NAME":"ONEWEB-0643","OBJECT_ID":"2023-029M","EPOCH":"2026-06-17T01:37:54.183936","MEAN_MOTION":13.14503257,"ECCENTRICITY":0.0001905,"INCLINATION":87.8954,"RA_OF_ASC_NODE":289.7535,"ARG_OF_PERICENTER":121.74,"MEAN_ANOMALY":238.3915,"EPHEMERIS_TYPE":0,"CLASSIFICATION_TYPE":"U","NORAD_CAT_ID":55807,"ELEMENT_SET_NO":999,"REV_AT_EPOCH":15937,"BSTAR":-0.00023527000000000002,"MEAN_MOTION_DOT":-7.4e-07,"MEAN_MOTION_DDOT":0.0},{"OBJECT_NAME":"ONEWEB-0644","OBJECT_ID":"2023-029N","EPOCH":"2026-06-16T22:36:18.472608","MEAN_MOTION":13.19724428,"ECCENTRICITY":0.0001726,"INCLINATION":87.9167,"RA_OF_ASC_NODE":305.0271,"ARG_OF_PERICENTER":109.4052,"MEAN_ANOMALY":250.7267,"EPHEMERIS_TYPE":0,"CLASSIFICATION_TYPE":"U","NORAD_CAT_ID":55808,"ELEMENT_SET_NO":999,"REV_AT_EPOCH":15887,"BSTAR":0.00014112,"MEAN_MOTION_DOT":6.9e-07,"MEAN_MOTION_DDOT":0.0},{"OBJECT_NAME":"ONEWEB-0645","OBJECT_ID":"2023-029P","EPOCH":"2026-06-17T02:46:30.052704","MEAN_MOTION":13.19724132,"ECCENTRICITY":0.0001412,"INCLINATION":87.9167,"RA_OF_ASC_NODE":304.9894,"ARG_OF_PERICENTER":101.1426,"MEAN_ANOMALY":258.9865,"EPHEMERIS_TYPE":0,"CLASSIFICATION_TYPE":"U","NORAD_CAT_ID":55809,"ELEMENT_SET_NO":999,"REV_AT_EPOCH":15889,"BSTAR":0.00010922,"MEAN_MOTION_DOT":5.7e-07,"MEAN_MOTION_DDOT":0.0},{"OBJECT_NAME":"ONEWEB-0646","OBJECT_ID":"2023-029Q","EPOCH":"2026-06-17T03:11:32.102880","MEAN_MOTION":13.19725005,"ECCENTRICITY":0.0001757,"INCLINATION":87.9168,"RA_OF_ASC_NODE":304.9862,"ARG_OF_PERICENTER":108.2274,"MEAN_ANOMALY":251.905,"EPHEMERIS_TYPE":0,"CLASSIFICATION_TYPE":"U","NORAD_CAT_ID":55810,"ELEMENT_SET_NO":999,"REV_AT_EPOCH":15888,"BSTAR":-6.615e-05,"MEAN_MOTION_DOT":-1.4e-07,"MEAN_MOTION_DDOT":0.0},{"OBJECT_NAME":"ONEWEB-0648","OBJECT_ID":"2023-029R","EPOCH":"2026-06-16T21:12:59.410080","MEAN_MOTION":13.14500761,"ECCENTRICITY":0.00011,"INCLINATION":87.8968,"RA_OF_ASC_NODE":289.7638,"ARG_OF_PERICENTER":120.1707,"MEAN_ANOMALY":239.9532,"EPHEMERIS_TYPE":0,"CLASSIFICATION_TYPE":"U","NORAD_CAT_ID":55811,"ELEMENT_SET_NO":999,"REV_AT_EPOCH":15935,"BSTAR":-6.07e-05,"MEAN_MOTION_DOT":-1e-07,"MEAN_MOTION_DDOT":0.0},{"OBJECT_NAME":"ONEWEB-0649","OBJECT_ID":"2023-029S","EPOCH":"2026-06-16T22:20:23.102880","MEAN_MOTION":13.19724825,"ECCENTRICITY":0.0001611,"INCLINATION":87.9168,"RA_OF_ASC_NODE":305.024,"ARG_OF_PERICENTER":101.9047,"MEAN_ANOMALY":258.2267,"EPHEMERIS_TYPE":0,"CLASSIFICATION_TYPE":"U","NORAD_CAT_ID":55812,"ELEMENT_SET_NO":999,"REV_AT_EPOCH":15889,"BSTAR":-0.00018256000000000001,"MEAN_MOTION_DOT":-6e-07,"MEAN_MOTION_DDOT":0.0},{"OBJECT_NAME":"ONEWEB-0650","OBJECT_ID":"2023-029T","EPOCH":"2026-06-17T01:51:53.800128","MEAN_MOTION":13.19725469,"ECCENTRICITY":0.000155,"INCLINATION":87.9168,"RA_OF_ASC_NODE":304.997,"ARG_OF_PERICENTER":114.3988,"MEAN_ANOMALY":245.7307,"EPHEMERIS_TYPE":0,"CLASSIFICATION_TYPE":"U","NORAD_CAT_ID":55813,"ELEMENT_SET_NO":999,"REV_AT_EPOCH":15888,"BSTAR":0.00027563,"MEAN_MOTION_DOT":1.23e-06,"MEAN_MOTION_DDOT":0.0},{"OBJECT_NAME":"ONEWEB-0652","OBJECT_ID":"2023-029U","EPOCH":"2026-06-16T20:45:34.758432","MEAN_MOTION":13.14504768,"ECCENTRICITY":0.0002034,"INCLINATION":87.8962,"RA_OF_ASC_NODE":289.7749,"ARG_OF_PERICENTER":98.806,"MEAN_ANOMALY":261.3301,"EPHEMERIS_TYPE":0,"CLASSIFICATION_TYPE":"U","NORAD_CAT_ID":55814,"ELEMENT_SET_NO":999,"REV_AT_EPOCH":15932,"BSTAR":0.00059984,"MEAN_MOTION_DOT":2.35e-06,"MEAN_MOTION_DDOT":0.0},{"OBJECT_NAME":"ONEWEB-0653","OBJECT_ID":"2023-029V","EPOCH":"2026-06-17T01:51:35.251776","MEAN_MOTION":13.14503207,"ECCENTRICITY":0.000189,"INCLINATION":87.8962,"RA_OF_ASC_NODE":289.7304,"ARG_OF_PERICENTER":97.9849,"MEAN_ANOMALY":262.1495,"EPHEMERIS_TYPE":0,"CLASSIFICATION_TYPE":"U","NORAD_CAT_ID":55815,"ELEMENT_SET_NO":999,"REV_AT_EPOCH":15938,"BSTAR":0.00013728000000000001,"MEAN_MOTION_DOT":6.4e-07,"MEAN_MOTION_DDOT":0.0},{"OBJECT_NAME":"ONEWEB-0654","OBJECT_ID":"2023-029W","EPOCH":"2026-06-17T01:44:44.176128","MEAN_MOTION":13.14503914,"ECCENTRICITY":0.0002127,"INCLINATION":87.8963,"RA_OF_ASC_NODE":289.7277,"ARG_OF_PERICENTER":92.2858,"MEAN_ANOMALY":267.8515,"EPHEMERIS_TYPE":0,"CLASSIFICATION_TYPE":"U","NORAD_CAT_ID":55816,"ELEMENT_SET_NO":999,"REV_AT_EPOCH":15940,"BSTAR":-0.00024522,"MEAN_MOTION_DOT":-7.8e-07,"MEAN_MOTION_DDOT":0.0}]